INSAT-3DS               
1 58990U 24033A   26171.40823205 -.00000160  00000+0  00000+0 0  9990
2 58990   0.0479 106.3313 0001171 331.3573  59.9873  1.00271082 47109
METEOR-M2 4             
1 59051U 24039A   26172.54463940  .00000004  00000+0  21415-4 0  9991
2 59051  98.7012 131.7880 0007535 149.0442 211.1182 14.22429890119885
GOES 19                 
1 60133U 24119A   26171.37127980 -.00000253  00000+0  00000+0 0  9993
2 60133   0.0015 112.2371 0000407  49.5773 165.2311  1.00270517  6990
MTG-S1                  
1 64723U 25143A   26171.39155049 -.00000005  00000+0  00000+0 0  9994
2 64723   0.6001 339.7327 0000829 294.1194 133.2187  1.00399694  3452
METOP-SGA1              
1 65159U 25172A   26167.15332899  .00000049  00000+0  42000-4 0  9997
2 65159  98.6644 226.8998 0000902  93.8213 266.3067 14.21509720 43644
FENGYUN 3H              
1 65815U 25219A   26171.42343481  .00000033  00000+0  36111-4 0  9991
2 65815  98.6768 112.1297 0001572  74.5092 285.6258 14.19920896 37843

SCD 1                   
1 22490U 93009B   26171.33203697  .00000313  00000+0  34510-4 0  9991
2 22490  24.9675 188.1587 0041952 170.9157 213.0702 14.46119674761575
TECHSAT 1B (GO-32)      
1 25397U 98043D   26171.43605319  .00000032  00000+0  33890-4 0  9999
2 25397  99.0068 164.2767 0001219 156.5266 203.5967 14.24428915451795
SCD 2                   
1 25504U 98060A   26171.07540117  .00000341  00000+0  44252-4 0  9999
2 25504  24.9960  54.3455 0016856 153.1205 320.9038 14.45526782460747
DLR-TUBSAT              
1 25757U 99029B   26170.98014943  .00000046  00000+0  23075-4 0  9999
2 25757  98.6694 166.5761 0013868 346.6123  13.4702 14.52427375433651
TERRA                   
1 25994U 99068A   26171.44083515  .00000275  00000+0  65041-4 0  9991
2 25994  97.9454 220.8581 0001842 178.7606 238.1366 14.61105267410080
MAROC-TUBSAT            
1 27004U 01056D   26171.37260714 -.00000034  00000+0  13845-4 0  9994
2 27004  99.8084 348.2921 0020418 133.3391 346.0489 13.70262541226623
AQUA                    
1 27424U 02022A   26171.42470413  .00000562  00000+0  12157-3 0  9998
2 27424  98.4278 140.7722 0000982  55.9702  96.4678 14.62162126283744
SHIYAN-1 (SY-1)         
1 28220U 04012A   26171.18463165  .00011063  00000+0  34057-3 0  9994
2 28220  97.8685 249.4480 0005306  22.5113 337.6360 15.33824479211556
AURA                    
1 28376U 04026A   26171.40966628  .00000566  00000+0  12442-3 0  9998
2 28376  98.3418 127.8897 0001187  77.8282 282.3052 14.61333094166687
IRS-P5 (CARTOSAT-1)     
1 28649U 05017A   26171.03106645  .00000963  00000+0  10255-3 0  9997
2 28649  97.5305 193.9666 0002525  76.4954 283.6546 14.91055438144248
SINAH 1                 
1 28893U 05043D   26171.40278067  .00000224  00000+0  51932-4 0  9994
2 28893  98.2865 305.7437 0013138 265.6982  94.2719 14.64159377100991
RESURS-DK 1             
1 29228U 06021A   26171.40661411  .00001448  00000+0  87373-4 0  9990
2 29228  69.9331 331.2197 0006868 290.2744  69.7684 15.13228164103061
ARIRANG-2 (KOMPSAT-2)   
1 29268U 06031A   26172.53289414  .00000161  00000+0  38659-4 0  9993
2 29268  97.8312 356.7686 0015793  62.1883  22.3025 14.64662141 62112
LAPAN-TUBSAT            
1 29709U 07001A   26172.49664299  .00001154  00000+0  13862-3 0  9995
2 29709  98.1347 171.8184 0012315 165.0172 195.1409 14.85956536 51798
HAIYANG-1B              
1 31113U 07010A   26171.43105603  .00000067  00000+0  41288-4 0  9995
2 31113  98.3495 153.1505 0013231 186.4668 173.6347 14.31027586  1108
COSMO-SKYMED 1          
1 31598U 07023A   26172.54623949  .00002341  00000+0  20804-3 0  9994
2 31598  97.8853   4.4384 0001612  96.2803 263.8602 14.97118892 30447
TERRASAR-X              
1 31698U 07026A   26170.49711592  .00000145  00000+0  10104-4 0  9995
2 31698  97.4452 178.1696 0001572  90.3933 269.7482 15.19151206 53579
WORLDVIEW-1 (WV-1)      
1 32060U 07041A   26171.44311463  .00004743  00000+0  19700-3 0  9993
2 32060  97.3881 291.1401 0001947  10.6143 349.5135 15.24296645 43374
YAOGAN-3                
1 32289U 07055A   26172.55727374  .00001742  00000+0  18283-3 0  9997
2 32289  97.8147 202.3919 0001754  82.7386 277.4032 14.90793867  6521
COSMO-SKYMED 2          
1 32376U 07059A   26172.48171627  .00000278  00000+0  41513-4 0  9990
2 32376  97.8888 356.0172 0001333  89.2119 270.9247 14.82157909  2644
RADARSAT-2              
1 32382U 07061A   26172.51594895  .00000089  00000+0  51486-4 0  9990
2 32382  98.5779 179.3870 0001308  84.3473 275.7858 14.29982678966572
CARTOSAT-2A             
1 32783U 08021A   26172.51099611  .00001267  00000+0  17696-3 0  9991
2 32783  97.7628 221.0728 0013330  96.4021 263.8709 14.79246926979446
HUANJING 1A (HJ-1A)     
1 33320U 08041A   26172.54910723  .00000719  00000+0  92209-4 0  9995
2 33320  97.6688 158.2194 0020258 121.0821 239.2385 14.83994384959052
HUANJING 1B (HJ-1B)     
1 33321U 08041B   26172.52016529  .00000692  00000+0  89798-4 0  9994
2 33321  97.6522 161.3498 0036434 166.7610 193.4570 14.83321897959057
GEOEYE 1                
1 33331U 08042A   26171.43092722  .00000322  00000+0  69364-4 0  9991
2 33331  98.1235 245.3211 0005299  61.7686 298.4052 14.64728217950624
THEOS                   
1 33396U 08049A   26172.47803064  .00000318  00000+0  16891-3 0  9994
2 33396  98.5565 229.6229 0001189  81.1049 279.0262 14.20135036918571
COSMO-SKYMED 3          
1 33412U 08054A   26172.52556606  .00002734  00000+0  18677-3 0  9990
2 33412  97.8285  31.1674 0013918 249.8501 110.1229 15.06975009957590
YAOGAN-4                
1 33446U 08061A   26171.40531236  .00000754  00000+0  98778-4 0  9994
2 33446  97.9306 104.8918 0015630  62.9607 297.3200 14.83205273946144
GOSAT (IBUKI)           
1 33492U 09002A   26171.20655268  .00000825  00000+0  15400-3 0  9990
2 33492  98.0896 282.2496 0001472  79.8858 280.2513 14.67540318931907
DEIMOS-1                
1 35681U 09041A   26172.52729519  .00000293  00000+0  50338-4 0  9991
2 35681  97.7413 329.5665 0001932 127.1499 232.9888 14.75240261907525
DUBAISAT-1              
1 35682U 09041B   26171.34499823  .00000558  00000+0  90158-4 0  9991
2 35682  98.0056 304.5680 0011555  64.7840 295.4565 14.75126564905568
OCEANSAT-2              
1 35931U 09051A   26172.48869671 -.00000206  00000+0 -11482-3 0  9991
2 35931  98.2323 158.9111 0015564 222.9325 137.0628 13.99663293879936
WORLDVIEW-2 (WV-2)      
1 35946U 09055A   26171.43434226  .00000074  00000+0  39024-4 0  9993
2 35946  98.4736 244.8392 0003904 197.1110 162.9946 14.37900227876119
SMOS                    
1 36036U 09059A   26171.45582071  .00000169  00000+0  67815-4 0  9996
2 36036  98.4426 358.7428 0001324  87.9186 272.2154 14.39774008873924
YAOGAN-7                
1 36110U 09069A   26171.40605635  .00000340  00000+0  54142-4 0  9997
2 36110  98.0068  57.2532 0025376  31.7797 328.4939 14.78012533890105
TANDEM-X                
1 36605U 10030A   26170.49711645  .00000194  00000+0  12414-4 0  9996
2 36605  97.4451 178.1721 0001891  87.7400 272.4051 15.19151444886990
CARTOSAT-2B             
1 36795U 10035A   26172.46754234  .00000542  00000+0  81042-4 0  9991
2 36795  97.9947 222.9908 0011566 169.8570 190.2877 14.78666375860487
YAOGAN-10               
1 36834U 10038A   26172.54471892  .00001149  00000+0  13987-3 0  9999
2 36834  97.8975 195.9149 0001741  85.2540  66.2465 14.85360559857854
COSMO-SKYMED 4          
1 37216U 10060A   26172.49438603  .00000303  00000+0  44605-4 0  9999
2 37216  97.8893 356.0310 0001447  86.3912 273.7467 14.82157004845205
RESOURCESAT-2           
1 37387U 11015A   26171.46738348  .00000002  00000+0  20960-4 0  9998
2 37387  98.7643 238.8867 0010271 244.9511 115.0601 14.21600287786642
HAIYANG-2A              
1 37781U 11043A   26172.47922443  .00000225  00000+0  28474-3 0  9994
2 37781  99.3397 175.0606 0005810  82.6456 277.5353 13.74333314747246
RASAT                   
1 37791U 11044D   26172.52968278  .00000225  00000+0  47487-4 0  9994
2 37791  98.0574 263.8605 0020577 174.9075 196.0613 14.68169242793824
SRMSAT                  
1 37841U 11058D   26171.35085059  .00000352  00000+0  47312-4 0  9990
2 37841  19.9729  40.3181 0011727 238.5935 283.9086 14.11576136758261
PLEIADES 1A             
1 38012U 11076F   26172.52813065  .00000394  00000+0  94560-4 0  9990
2 38012  98.1970 247.5734 0001732  94.5513  30.1518 14.58533884772623
ZIYUAN 1-02C (ZY 1-02C) 
1 38038U 11079A   26172.53713726  .00000583  00000+0  20616-3 0  9995
2 38038  98.4066 239.7552 0005290 301.3280 167.3029 14.38218740759831
ARIRANG-3 (KOMPSAT-3)   
1 38338U 12025B   26172.48069449  .00000291  00000+0  66986-4 0  9997
2 38338  98.1172 129.8665 0006785  98.6796 261.5175 14.62209168751978
EXACTVIEW-1 (ADS-1B)    
1 38709U 12039C   26171.33029843  .00000089  00000+0  57653-4 0  9997
2 38709  98.9781 288.7915 0011328 157.6726 202.4948 14.24985343723150
SPOT 6                  
1 38755U 12047A   26172.51970411  .00000516  00000+0  12081-3 0  9994
2 38755  98.2113 239.7786 0001546  92.3922 267.7455 14.58566130733681
PLEIADES 1B             
1 39019U 12068A   26172.47002948  .00000522  00000+0  12215-3 0  9993
2 39019  98.1941 247.4631 0001688  90.3028 269.8364 14.58563736721475
GOKTURK 2               
1 39030U 12073A   26172.48863488  .00000068  00000+0  16886-4 0  9991
2 39030  97.6820   9.7037 0001389  58.2802 301.8544 14.75545326725147
LANDSAT 8               
1 39084U 13008A   26171.45824818  .00000230  00000+0  61084-4 0  9990
2 39084  98.2301 241.5547 0001358  93.7192 266.4162 14.57096364698370
SARAL                   
1 39086U 13009A   26171.46261523  .00000045  00000+0  32654-4 0  9997
2 39086  98.5558 357.9883 0000619 282.5589  77.5526 14.32856589696077
GAOFEN-1                
1 39150U 13018A   26172.53563603  .00000311  00000+0  51792-4 0  9992
2 39150  97.9088 244.5158 0015737 251.0160 108.9345 14.76540302708881
VNREDSAT 1              
1 39160U 13021B   26172.46066258  .00000527  00000+0  10708-3 0  9993
2 39160  97.9074 225.7135 0001739  88.4523 271.6880 14.64861023700916
